COSMOS 2433 (720)       
1 32275U 07052A   26152.43012319 -.00000056  00000+0  00000+0 0  9992
2 32275  65.5859 316.4630 0001912 186.6021 173.3829  2.13104242144729
COSMOS 2432 (719)       
1 32276U 07052B   26152.47921043 -.00000055  00000+0  00000+0 0  9999
2 32276  65.6026 316.5890 0007962 335.3326   6.2477  2.13103259144740
COSMOS 2434 (721)       
1 32393U 07065A   26153.14009617  .00000070  00000+0  00000+0 0  9998
2 32393  64.3168 192.4234 0001085 347.6275  86.9390  2.13101481143456
COSMOS 2436 (723)       
1 32395U 07065C   26152.48376193  .00000073  00000+0  00000+0 0  9995
2 32395  64.3249 192.5174 0017138 355.3995  68.0347  2.13100308143396
COSMOS 2456 (730)       
1 36111U 09070A   26152.53706269 -.00000033  00000+0  00000+0 0  9997
2 36111  65.0030  71.5051 0005236 325.3129 164.6820  2.13103742128098
COSMOS 2457 (733)       
1 36112U 09070B   26153.30138626 -.00000026  00000+0  00000+0 0  9992
2 36112  64.9888  71.3232 0002195 128.6205 355.2851  2.13101256128110
COSMOS 2460 (732)       
1 36402U 10007C   26147.50482167 -.00000063  00000+0  00000+0 0  9994
2 36402  65.4349 315.1661 0002254  94.4404 264.5388  2.13101719126289
COSMOS 2476 (744)       
1 37867U 11064A   26153.14724135 -.00000025  00000+0  00000+0 0  9993
2 37867  65.2623  73.3783 0023128 240.2942 266.1447  2.13103885113441
COSMOS 2477 (745)       
1 37868U 11064B   26153.36372534 -.00000023  00000+0  00000+0 0  9998
2 37868  65.2687  73.4502 0020114 241.4281 251.4738  2.13103084113444
COSMOS 2475 (743)       
1 37869U 11064C   26153.47891706 -.00000022  00000+0  00000+0 0  9997
2 37869  65.2758  73.4679 0026056 254.1245 282.3322  2.13101943113456
COSMOS 2485 (747)       
1 39155U 13019A   26153.36294722 -.00000022  00000+0  00000+0 0  9992
2 39155  65.4122  74.1014 0023525 235.3541 124.4332  2.13103372101960
COSMOS 2492 (754)       
1 39620U 14012A   26153.32183632 -.00000049  00000+0  00000+0 0  9995
2 39620  65.3065 314.4405 0010606 327.7227  32.1988  2.13103599 94929
COSMOS 2500 (755)       
1 40001U 14032A   26152.08402469 -.00000058  00000+0  00000+0 0  9996
2 40001  65.2426 314.2309 0006799 181.6646 178.3186  2.13106079 93114
COSMOS 2501 (702K)      
1 40315U 14075A   26153.28444469  .00000069  00000+0  00000+0 0  9991
2 40315  63.6153 190.8879 0022432 212.0160 147.9258  2.13101483 89530
COSMOS 2514 (751)       
1 41330U 16008A   26152.33032016 -.00000056  00000+0  00000+0 0  9990
2 41330  65.0317 313.5506 0010665 197.0675 162.8817  2.13102797 80284
COSMOS 2522 (752)       
1 42939U 17055A   26153.10670400  .00000070  00000+0  00000+0 0  9995
2 42939  64.0774 192.3978 0010513 239.6203 120.3566  2.13102000 67657
COSMOS 2527 (756)       
1 43508U 18053A   26153.06827991 -.00000024  00000+0  00000+0 0  9991
2 43508  65.5700  74.4108 0007400 243.2517 116.6796  2.13102213 61956
COSMOS 2529 (757)       
1 43687U 18086A   26153.16491316  .00000069  00000+0  00000+0 0  9992
2 43687  64.2936 193.1017 0011618 256.1127 103.8395  2.13102175 58962
COSMOS 2534 (758)       
1 44299U 19030A   26152.75623552  .00000071  00000+0  00000+0 0  9998
2 44299  64.3675 193.1362 0013130 275.2169 265.7708  2.13102488 54593
COSMOS 2544 (759)       
1 44850U 19088A   26153.01299314 -.00000025  00000+0  00000+0 0  9999
2 44850  65.5580  74.2365 0013712 260.3768  99.4753  2.13102047 50399
COSMOS 2545 (760)       
1 45358U 20018A   26153.20807066 -.00000051  00000+0  00000+0 0  9997
2 45358  64.3642 312.9447 0007755 231.9811 127.9346  2.13102675 48349
COSMOS 2547 (705K)      
1 46805U 20075A   26152.45898882  .00000073  00000+0  00000+0 0  9993
2 46805  64.5982 193.0008 0009130 239.1969 120.7967  2.13100326 43571
COSMOS 2557 (706K)      
1 52984U 22075A   26151.21557931 -.00000064  00000+0  00000+0 0  9991
2 52984  64.3090 315.0826 0010089 277.5106  82.3609  2.13102242 30359
COSMOS 2559 (707K)      
1 54031U 22130A   26151.97369020 -.00000061  00000+0  00000+0 0  9998
2 54031  64.2818 315.1401 0012220 176.8765 183.1177  2.13101759 28340
COSMOS 2564 (761)       
1 54377U 22161A   26153.22482973  .00000070  00000+0  00000+0 0  9997
2 54377  64.7404 193.2085 0011974 223.9125 136.0737  2.13102104 27311
COSMOS 2569 (703K)      
1 57517U 23114A   26153.23716213 -.00000024  00000+0  00000+0 0  9993
2 57517  65.2941  73.1245 0011235 296.7139  63.1811  2.13103818 21948
COSMOS 2584 (704K)      
1 63130U 25042A   26151.24698447 -.00000044  00000+0  00000+0 0  9992
2 63130  65.0752  73.3776 0005920 230.3550 129.5914  2.13103967  9683
COSMOS 2596 (708K)      
1 65590U 25206B   26149.68459361 -.00000068  00000+0  00000+0 0  9997
2 65590  64.6467 315.6290 0011151 314.6394  43.2361  2.13100909  5510
